{"type": "FeatureCollection", "features": [ {"type": "Feature", "properties": {"norad_id": 33939, "name": "COSMOS 2251 DEB", "group": "cosmos-2251-debris", "lat": -57.145408836497325, "lon": -54.85338641508473, "alt_km": 578.7987040565258, "timestamp": "2025-12-03T19:33:07.370434+00:00", "meta": {"OBJECT_NAME": "COSMOS 2251 DEB", "OBJECT_ID": "1993-036EU", "EPOCH": "2025-12-03T07:15:58.749984", "MEAN_MOTION": 14.98646813, "ECCENTRICITY": 0.0003138, "INCLINATION": 74.0071, "RA_OF_ASC_NODE": 99.8199, "ARG_OF_PERICENTER": 119.8162, "MEAN_ANOMALY": 240.3336, "EPHEMERIS_TYPE": 0, "CLASSIFICATION_TYPE": "U", "NORAD_CAT_ID": 33939, "ELEMENT_SET_NO": 999, "REV_AT_EPOCH": 88611, "BSTAR": 0.0046169, "MEAN_MOTION_DOT": 0.00055865, "MEAN_MOTION_DDOT": 0}, "tle": {"line1": "1 33939U 93036EU  25337.30276331  .00055865  00000+0  46169-2 0  9999", "line2": "2 33939  74.0071  99.8199 0003138 119.8162 240.3336 14.98646813886111"}}, "geometry": {"type": "Point", "coordinates": [-54.85338641508473, -57.145408836497325]}}, {"type": "Feature", "properties": {"norad_id": 33940, "name": "COSMOS 2251 DEB", "group": "cosmos-2251-debris", "lat": -52.21857026422538, "lon": 2.1563297088344515, "alt_km": 695.9019072980345, "timestamp": "2025-12-03T19:33:07.370444+00:00", "meta": {"OBJECT_NAME": "COSMOS 2251 DEB", "OBJECT_ID": "1993-036EV", "EPOCH": "2025-12-03T12:01:45.400224", "MEAN_MOTION": 14.58643352, "ECCENTRICITY": 0.0011697, "INCLINATION": 74.0383, "RA_OF_ASC_NODE": 161.0848, "ARG_OF_PERICENTER": 240.1782, "MEAN_ANOMALY": 149.7723, "EPHEMERIS_TYPE": 0, "CLASSIFICATION_TYPE": "U", "NORAD_CAT_ID": 33940, "ELEMENT_SET_NO": 999, "REV_AT_EPOCH": 88459, "BSTAR": 0.0014356, "MEAN_MOTION_DOT": 6.672e-05, "MEAN_MOTION_DDOT": 0}, "tle": {"line1": "1 33940U 93036EV  25337.50121991  .00006672  00000+0  14356-2 0  9999", "line2": "2 33940  74.0383 161.0848 0011697 240.1782 149.7723 14.58643352884590"}}, "geometry": {"type": "Point", "coordinates": [2.1563297088344515, -52.21857026422538]}}, {"type": "Feature", "properties": {"norad_id": 33942, "name": "COSMOS 2251 DEB", "group": "cosmos-2251-debris", "lat": 17.627052868260442, "lon": -63.51568470903846, "alt_km": 751.0935922079561, "timestamp": "2025-12-03T19:33:07.370455+00:00", "meta": {"OBJECT_NAME": "COSMOS 2251 DEB", "OBJECT_ID": "1993-036EX", "EPOCH": "2025-12-03T08:31:41.485728", "MEAN_MOTION": 14.3796492, "ECCENTRICITY": 0.0019885, "INCLINATION": 74.0361, "RA_OF_ASC_NODE": 292.1115, "ARG_OF_PERICENTER": 17.5353, "MEAN_ANOMALY": 144.0923, "EPHEMERIS_TYPE": 0, "CLASSIFICATION_TYPE": "U", "NORAD_CAT_ID": 33942, "ELEMENT_SET_NO": 999, "REV_AT_EPOCH": 87999, "BSTAR": 0.00037391, "MEAN_MOTION_DOT": 1.106e-05, "MEAN_MOTION_DDOT": 0}, "tle": {"line1": "1 33942U 93036EX  25337.35534127  .00001106  00000+0  37391-3 0  9995", "line2": "2 33942  74.0361 292.1115 0019885  17.5353 144.0923 14.37964920879990"}}, "geometry": {"type": "Point", "coordinates": [-63.51568470903846, 17.627052868260442]}}, {"type": "Feature", "properties": {"norad_id": 33944, "name": "COSMOS 2251 DEB", "group": "cosmos-2251-debris", "lat": -73.71446574823568, "lon": -113.04884581296999, "alt_km": 846.1237195756876, "timestamp": "2025-12-03T19:33:07.370465+00:00", "meta": {"OBJECT_NAME": "COSMOS 2251 DEB", "OBJECT_ID": "1993-036EZ", "EPOCH": "2025-12-03T10:40:27.606144", "MEAN_MOTION": 14.37311297, "ECCENTRICITY": 0.0111925, "INCLINATION": 74.04, "RA_OF_ASC_NODE": 326.0273, "ARG_OF_PERICENTER": 68.089, "MEAN_ANOMALY": 92.4816, "EPHEMERIS_TYPE": 0, "CLASSIFICATION_TYPE": "U", "NORAD_CAT_ID": 33944, "ELEMENT_SET_NO": 999, "REV_AT_EPOCH": 87894, "BSTAR": 0.00041291, "MEAN_MOTION_DOT": 1.297e-05, "MEAN_MOTION_DDOT": 0}, "tle": {"line1": "1 33944U 93036EZ  25337.44476396  .00001297  00000+0  41291-3 0  9995", "line2": "2 33944  74.0400 326.0273 0111925  68.0890  92.4816 14.37311297878947"}}, "geometry": {"type": "Point", "coordinates": [-113.04884581296999, -73.71446574823568]}}, {"type": "Feature", "properties": {"norad_id": 33945, "name": "COSMOS 2251 DEB", "group": "cosmos-2251-debris", "lat": 24.270307879715975, "lon": 135.2031360200916, "alt_km": 778.8380250691498, "timestamp": "2025-12-03T19:33:07.370475+00:00", "meta": {"OBJECT_NAME": "COSMOS 2251 DEB", "OBJECT_ID": "1993-036FA", "EPOCH": "2025-12-03T08:47:39.094080", "MEAN_MOTION": 14.34588162, "ECCENTRICITY": 0.0021564, "INCLINATION": 74.0293, "RA_OF_ASC_NODE": 323.4432, "ARG_OF_PERICENTER": 52.7073, "MEAN_ANOMALY": 307.6041, "EPHEMERIS_TYPE": 0, "CLASSIFICATION_TYPE": "U", "NORAD_CAT_ID": 33945, "ELEMENT_SET_NO": 999, "REV_AT_EPOCH": 87881, "BSTAR": 0.00020334, "MEAN_MOTION_DOT": 5.5e-06, "MEAN_MOTION_DDOT": 0}, "tle": {"line1": "1 33945U 93036FA  25337.36642470  .00000550  00000+0  20334-3 0  9991", "line2": "2 33945  74.0293 323.4432 0021564  52.7073 307.6041 14.34588162878819"}}, "geometry": {"type": "Point", "coordinates": [135.2031360200916, 24.270307879715975]}}, {"type": "Feature", "properties": {"norad_id": 33948, "name": "COSMOS 2251 DEB", "group": "cosmos-2251-debris", "lat": -28.70107794919512, "lon": -47.50686060464387, "alt_km": 772.9865899180959, "timestamp": "2025-12-03T19:33:07.370485+00:00", "meta": {"OBJECT_NAME": "COSMOS 2251 DEB", "OBJECT_ID": "1993-036FD", "EPOCH": "2025-12-03T09:39:22.950144", "MEAN_MOTION": 14.35610829, "ECCENTRICITY": 0.0022347, "INCLINATION": 74.0351, "RA_OF_ASC_NODE": 322.2667, "ARG_OF_PERICENTER": 40.8193, "MEAN_ANOMALY": 319.4628, "EPHEMERIS_TYPE": 0, "CLASSIFICATION_TYPE": "U", "NORAD_CAT_ID": 33948, "ELEMENT_SET_NO": 999, "REV_AT_EPOCH": 87889, "BSTAR": 0.00028854, "MEAN_MOTION_DOT": 8.08e-06, "MEAN_MOTION_DDOT": 0}, "tle": {"line1": "1 33948U 93036FD  25337.40234896  .00000808  00000+0  28854-3 0  9999", "line2": "2 33948  74.0351 322.2667 0022347  40.8193 319.4628 14.35610829878892"}}, "geometry": {"type": "Point", "coordinates": [-47.50686060464387, -28.70107794919512]}}, {"type": "Feature", "properties": {"norad_id": 33971, "name": "COSMOS 2251 DEB", "group": "cosmos-2251-debris", "lat": -73.67940274197457, "lon": 168.27507795987296, "alt_km": 769.9493803420419, "timestamp": "2025-12-03T19:33:07.370495+00:00", "meta": {"OBJECT_NAME": "COSMOS 2251 DEB", "OBJECT_ID": "1993-036FE", "EPOCH": "2025-12-03T07:24:51.539904", "MEAN_MOTION": 14.39695284, "ECCENTRICITY": 0.0018091, "INCLINATION": 74.0248, "RA_OF_ASC_NODE": 271.1616, "ARG_OF_PERICENTER": 13.4832, "MEAN_ANOMALY": 153.2331, "EPHEMERIS_TYPE": 0, "CLASSIFICATION_TYPE": "U", "NORAD_CAT_ID": 33971, "ELEMENT_SET_NO": 999, "REV_AT_EPOCH": 88003, "BSTAR": 0.0004815, "MEAN_MOTION_DOT": 1.484e-05, "MEAN_MOTION_DDOT": 0}, "tle": {"line1": "1 33971U 93036FE  25337.30892986  .00001484  00000+0  48150-3 0  9996", "line2": "2 33971  74.0248 271.1616 0018091  13.4832 153.2331 14.39695284880032"}}, "geometry": {"type": "Point", "coordinates": [168.27507795987296, -73.67940274197457]}}, {"type": "Feature", "properties": {"norad_id": 33972, "name": "COSMOS 2251 DEB", "group": "cosmos-2251-debris", "lat": -40.930642926767426, "lon": -167.3134701020753, "alt_km": 732.4290137945745, "timestamp": "2025-12-03T19:33:07.370506+00:00", "meta": {"OBJECT_NAME": "COSMOS 2251 DEB", "OBJECT_ID": "1993-036FF", "EPOCH": "2025-12-02T23:58:48.154080", "MEAN_MOTION": 14.36111231, "ECCENTRICITY": 0.01229339, "INCLINATION": 73.9949, "RA_OF_ASC_NODE": 208.5999, "ARG_OF_PERICENTER": 18.5394, "MEAN_ANOMALY": 45.3363, "EPHEMERIS_TYPE": 0, "CLASSIFICATION_TYPE": "U", "NORAD_CAT_ID": 33972, "ELEMENT_SET_NO": 999, "REV_AT_EPOCH": 86934, "BSTAR": 0.0015103447, "MEAN_MOTION_DOT": 4.77e-05, "MEAN_MOTION_DDOT": 0}, "tle": {"line1": "1 33972U 93036FF  25336.99916845  .00004770  00000+0  15103-2 0  9994", "line2": "2 33972  73.9949 208.5999 0122933  18.5394  45.3363 14.36111231869346"}}, "geometry": {"type": "Point", "coordinates": [-167.3134701020753, -40.930642926767426]}}, {"type": "Feature", "properties": {"norad_id": 33973, "name": "COSMOS 2251 DEB", "group": "cosmos-2251-debris", "lat": 44.241196523943124, "lon": -76.66185600604, "alt_km": 769.2804603640261, "timestamp": "2025-12-03T19:33:07.370515+00:00", "meta": {"OBJECT_NAME": "COSMOS 2251 DEB", "OBJECT_ID": "1993-036FG", "EPOCH": "2025-12-03T12:37:21.660096", "MEAN_MOTION": 14.45373918, "ECCENTRICITY": 0.004713, "INCLINATION": 74.0071, "RA_OF_ASC_NODE": 120.0955, "ARG_OF_PERICENTER": 300.2413, "MEAN_ANOMALY": 131.5575, "EPHEMERIS_TYPE": 0, "CLASSIFICATION_TYPE": "U", "NORAD_CAT_ID": 33973, "ELEMENT_SET_NO": 999, "REV_AT_EPOCH": 88467, "BSTAR": 0.00022401, "MEAN_MOTION_DOT": 7.7e-06, "MEAN_MOTION_DDOT": 0}, "tle": {"line1": "1 33973U 93036FG  25337.52594514  .00000770  00000+0  22401-3 0  9996", "line2": "2 33973  74.0071 120.0955 0047130 300.2413 131.5575 14.45373918884671"}}, "geometry": {"type": "Point", "coordinates": [-76.66185600604, 44.241196523943124]}}, {"type": "Feature", "properties": {"norad_id": 33975, "name": "COSMOS 2251 DEB", "group": "cosmos-2251-debris", "lat": 67.47717956001397, "lon": 144.64844171679874, "alt_km": 1015.8588986377836, "timestamp": "2025-12-03T19:33:07.370526+00:00", "meta": {"OBJECT_NAME": "COSMOS 2251 DEB", "OBJECT_ID": "1993-036FJ", "EPOCH": "2025-12-02T17:28:18.663456", "MEAN_MOTION": 14.00486492, "ECCENTRICITY": 0.01914895, "INCLINATION": 73.8011, "RA_OF_ASC_NODE": 102.0511, "ARG_OF_PERICENTER": 236.4744, "MEAN_ANOMALY": 121.797, "EPHEMERIS_TYPE": 0, "CLASSIFICATION_TYPE": "U", "NORAD_CAT_ID": 33975, "ELEMENT_SET_NO": 999, "REV_AT_EPOCH": 85689, "BSTAR": 0.00092188562, "MEAN_MOTION_DOT": 1.577e-05, "MEAN_MOTION_DDOT": 0}, "tle": {"line1": "1 33975U 93036FJ  25336.72799379  .00001577  00000+0  92189-3 0  9991", "line2": "2 33975  73.8011 102.0511 0191489 236.4744 121.7970 14.00486492856892"}}, "geometry": {"type": "Point", "coordinates": [144.64844171679874, 67.47717956001397]}}]}